{
  "last_updated": "2026-03-28T06:00:03.200724",
  "satellites": {
    "98592": {
      "name": "DUTHSat-2",
      "norad_id": "98592",
      "tle": "1 64530U 25135C   26086.81553106  .00015005  00000-0  60608-3 0  9999\n2 64530  97.4508 202.9334 0006028 115.5643 244.6218 15.24842737 42520",
      "epoch": "2026-03-27T19:34:21.883584",
      "fetched_at": "2026-03-28T06:00:03.337829",
      "source": "satnogs"
    },
    "98530": {
      "name": "LAMARR",
      "norad_id": "98530",
      "tle": "1 66673U 25276H   26026.90917087  .00034524  00000-0  16680-2 0  9998\n2 66673  97.4301 102.8338 0007597 141.5941 218.5835 15.18529012  8972",
      "epoch": "2026-01-26T21:49:12.363168",
      "fetched_at": "2026-01-28T06:00:02.884758",
      "source": "satnogs",
      "note": "Using previous TLE (fetch/manual failed today)"
    },
    "98529": {
      "name": "DIRAC",
      "norad_id": "98529",
      "tle": "1 66681U 25276R   26026.63281774  .00024563  00000-0  11745-2 0  9993\n2 66681  97.4280 102.5712 0006320 148.4115 211.7500 15.18972786  8932",
      "epoch": "2026-01-26T15:11:15.452736",
      "fetched_at": "2026-01-28T06:00:02.937152",
      "source": "satnogs",
      "note": "Using previous TLE (fetch/manual failed today)"
    },
    "98518": {
      "name": "MICE-1",
      "norad_id": "98518",
      "tle": "1 66684U 25276U   26086.75209949  .00004094  00000-0  20137-3 0  9992\n2 66684  97.4316 161.7574 0003867 278.4720  81.6076 15.18568112 18057",
      "epoch": "2026-03-27T18:03:01.395936",
      "fetched_at": "2026-03-28T06:00:03.494762",
      "source": "satnogs"
    }
  },
  "fetch_log": [
    {
      "norad_id": "98592",
      "name": "DUTHSat-2",
      "status": "success",
      "source": "satnogs",
      "timestamp": "2026-03-28T06:00:03.337835"
    },
    {
      "norad_id": "98530",
      "name": "LAMARR",
      "status": "fallback",
      "timestamp": "2026-03-28T06:00:03.391998"
    },
    {
      "norad_id": "98529",
      "name": "DIRAC",
      "status": "fallback",
      "timestamp": "2026-03-28T06:00:03.440352"
    },
    {
      "norad_id": "98518",
      "name": "MICE-1",
      "status": "success",
      "source": "satnogs",
      "timestamp": "2026-03-28T06:00:03.494770"
    }
  ]
}